#aV2005  1 20  0  0   .00000000      96 DD+AD WGS84 FIT  NGA
## 1306 345600.00000000   900.00000000 53390  .0000000000000
+   29     1  2  3  4  5  6  7  8  9 10 11 13 14 15 16 17 18
+         19 20 21 22 23 24 25 26 27 28 29 30  0  0  0  0  0
+          0  0  0  0  0  0  0  0  0  0  0  0  0  0  0  0  0
+          0  0  0  0  0  0  0  0  0  0  0  0  0  0  0  0  0
+          0  0  0  0  0  0  0  0  0  0  0  0  0  0  0  0  0
++         0  0  0  0  0  0  0  0  0  0  0  0  0  0  0  0  0
++         0  0  0  0  0  0  0  0  0  0  0  0  0  0  0  0  0
++         0  0  0  0  0  0  0  0  0  0  0  0  0  0  0  0  0
++         0  0  0  0  0  0  0  0  0  0  0  0  0  0  0  0  0
++         0  0  0  0  0  0  0  0  0  0  0  0  0  0  0  0  0
%c cc cc ccc ccc cccc cccc cccc cccc ccccc ccccc ccccc ccccc
%c cc cc ccc ccc cccc cccc cccc cccc ccccc ccccc ccccc ccccc
%f  0.0000000  0.000000000  0.00000000000  0.000000000000000
%f  0.0000000  0.000000000  0.00000000000  0.000000000000000
%i    0    0    0    0      0      0      0      0         0
%i    0    0    0    0      0      0      0      0         0
/*      NGA, ST. LOUIS,MO.                                  
/*   EPHEMERIS COMPUTED FROM  3 DAYS OF DATA                
/* CCCCCCCCCCCCCCCCCCCCCCCCCCCCCCCCCCCCCCCCCCCCCCCCCCCCCCCCC
/* CCCCCCCCCCCCCCCCCCCCCCCCCCCCCCCCCCCCCCCCCCCCCCCCCCCCCCCCC
*  2005  1 20  6 30   .00000000                                                 
P  1 -12917.841028 -14157.837169  18590.697246    383.850649                    
V  1  23102.128810   1836.769370  17609.042124       .020395                    
P  2  14102.594776  21978.611400  -5383.978850    -42.533280                    
V  2    151.301343   7001.688300  30633.290066       .056354                    
P  3 -18666.414492 -11688.093135 -15153.576753     78.125188                    
V  3  19057.837588  -2205.812266 -21689.301390       .030377                    
P  4   5109.202737  24857.392750   7215.259041    441.221555                    
V  4  -6462.579910  -7299.816360  30058.856452      -.206687                    
P  5  18614.328441  -5167.926099  17997.570582     73.200802                    
V  5 -10322.582982  21004.991340  16730.909186       .024731                    
P  6  21894.474429  -7857.566400 -12727.471871   -162.372835                    
V  6  16237.888770   4075.957711  24930.219839       .880337                    
P  7  -3804.517104  15679.872263  21500.240434     62.613716                    
V  7 -26404.204688  -1628.457207  -3703.353524      -.302864                    
P  8  -4384.790386  19985.372859 -16912.806918    -19.073032                    
V  8  -9765.603768 -18976.780442 -20452.758384      -.011684                    
P  9  17817.390604   7167.247816  18013.596074    -24.886466                    
V  9   9174.523399  21959.901003 -17017.180093      -.017983                    
P 10   8775.602536  12639.134642 -21668.112281     57.531265                    
V 10 -16714.242903  21677.716777   6175.454411       .007232                    
P 11 -19252.470828  -4933.645272  17677.682891    186.585764                    
V 11  -9711.656789 -20593.659481 -16110.875630       .036786                    
P 13 -21888.271738   6573.113949 -13530.548343    -13.789048                    
V 13 -16785.817793  -3490.546034  25628.113822       .009356                    
P 14   4045.707827 -14400.890597  22003.333763    -31.487536                    
V 14  27581.590560   2989.146006  -3140.320114      -.000909                    
P 15  -1265.698484 -24362.510569 -10333.858741    378.013837                    
V 15   6864.364212  11246.926098 -28196.685939       .053039                    
P 16  -3604.091425 -17927.995839 -19173.215806      1.987174                    
V 16  15408.912557 -19118.497533  14962.415245      -.001850                    
P 17  15356.357516  17180.915956 -13606.849927    -92.632973                    
V 17   3717.789183  17059.720722  24538.961929       .191504                    
P 18  17690.594130 -19426.525769  -2744.015546   -119.030789                    
V 18    117.569233   4646.848340 -31704.472853      -.037429                    
P 19 -24670.667469  -7868.337754  -5735.623527    -11.892491                    
V 19   7758.266327  -1651.200882 -30612.868215      -.008712                    
P 20 -19061.048269   6005.880298  17415.405211    -90.808077                    
V 20  11430.810739 -19172.052252  19058.309359       .026792                    
P 21   9607.668538 -14445.806516 -19995.471906     88.034381                    
V 21  10809.487738  23177.448521 -11999.491979       .010786                    
P 22  11043.148096 -22837.374818   8074.857173     16.265456                    
V 22   8292.027005  -6206.217398 -29465.907144       .002904                    
P 23 -26232.425039    686.846450  -4564.383058    211.499805                    
V 23  -5388.866646  -3117.631581  31028.817018       .005603                    
P 24   2385.544994  24573.535506   9849.204502     89.518858                    
V 24  -6693.769849 -10426.335039  28571.152313       .028918                    
P 25  -8258.766588 -24425.698351   6685.306905     84.328773                    
V 25   6581.441077   5489.750242  29947.923994       .007656                    
P 26  24654.623087   7853.885822  -7576.921262    317.109256                    
V 26  -9128.690556    369.302890 -29980.235323       .055631                    
P 27  -8954.721927  13843.545288 -20193.379126    513.590646                    
V 27 -13689.795894 -23297.474698 -10090.260880       .063204                    
P 28 -10749.605193  23087.411579   7124.714666     46.479695                    
V 28  -7607.983322   5388.848779 -30172.491571       .000558                    
P 29  22221.909961   9236.070552 -11132.991842    178.446915                    
V 29 -14559.438840    673.646697 -27703.978226      -.189808                    
P 30  19031.096419 -15191.694728  10222.643346    443.958769                    
V 30  -4844.011540  12892.232052  27612.912610      -.143634                    
EOF
